EUTELSAT 7A             
1 28187U 04008A   25297.59131487  .00000116  00000+0  00000+0 0  9997
2 28187   5.2290  74.8083 0000797 114.0085 278.1112  1.00270761 78997
EUTELSAT 174A           
1 28924U 05052A   25297.79613720  .00000023  00000+0  00000+0 0  9990
2 28924   3.6195  79.4303 0006125 132.8434 281.8540  1.00269735 49976
EUTELSAT HOTBIRD 13B    
1 29270U 06032A   25297.76823038  .00000169  00000+0  00000+0 0  9997
2 29270   1.0489  84.7881 0003925 121.4214 136.8863  1.00273932 44947
EUTELSAT HOTBIRD 13C    
1 33459U 08065A   25297.83054403 -.00000087  00000+0  00000+0 0  9999
2 33459   2.3413  81.9613 0005893 150.7524  87.2958  1.00272308 44983
EUTELSAT 36B            
1 36101U 09065A   25297.77169706  .00000125  00000+0  00000+0 0  9995
2 36101   0.0511   2.4116 0005906 212.0810 147.2710  1.00269936 58346
EUTELSAT KA-SAT 9A      
1 37258U 10069A   25297.62069502  .00000075  00000+0  00000+0 0  9996
2 37258   0.0574 321.5705 0002514 216.0831  88.0974  1.00274610 41641
EUTELSAT 7 WEST A       
1 37816U 11051A   25297.83158404 -.00000047  00000+0  00000+0 0  9991
2 37816   0.0936  46.9390 0006280 159.8755 118.7607  1.00272548 51524
EUTELSAT 16A            
1 37836U 11057A   25297.76485036  .00000116  00000+0  00000+0 0  9991
2 37836   0.0652   1.0928 0005547 216.0102 107.6852  1.00269627  4966
